NORAD_CAT_ID,OBJECT_NAME,OBJECT_TYPE,EPOCH,MEAN_MOTION,ECCENTRICITY,INCLINATION,RA_OF_ASC_NODE,ARG_OF_PERICENTER,MEAN_ANOMALY,BSTAR,MEAN_MOTION_DOT,MEAN_MOTION_DDOT,TLE_LINE0,TLE_LINE1,TLE_LINE2,SEMIMAJOR_AXIS,PERIOD,APOGEE,PERIGEE,DECAYED
52876.0,STARLINK-4200,PAYLOAD,2023-01-26 10:10:05,15.08850379,0.0001514,53.2175,83.9915,94.5218,265.5947,0.00023423,3.443e-05,0.0,0 STARLINK-4200,1 52876U 22062AY  23026.42367528  .00003443  00000-0  23423-3 0  9991,2 52876  53.2175  83.9915 0001514  94.5218 265.5947 15.08850379 34223,6917.849,95.437,540.761,538.6659999999999,0.0
52876.0,STARLINK-4200,PAYLOAD,2023-01-26 21:17:47,15.08841044,0.0001501999999999,53.2172,81.9097,102.2373,257.8788,4.8368e-05,4.82e-06,0.0,0 STARLINK-4200,1 52876U 22062AY  23026.88735885  .00000482  00000-0  48368-4 0  9992,2 52876  53.2172  81.9097 0001502 102.2373 257.8788 15.08841044 34782,6917.877,95.437,540.781,538.703,0.0
52876.0,STARLINK-4200,PAYLOAD,2023-01-27 08:25:29,15.08840214,0.0001388,53.2176,79.828,100.9543,259.1605,6.613100000000001e-05,7.65e-06,0.0,0 STARLINK-4200,1 52876U 22062AY  23027.35103876  .00000765  00000-0  66131-4 0  9996,2 52876  53.2176  79.8280 0001388 100.9543 259.1605 15.08840214 34367,6917.88,95.438,540.705,538.785,0.0
52876.0,STARLINK-4200,PAYLOAD,2023-01-28 03:30:07,15.08838927,0.0001344,53.2175,76.2584,104.1961,255.918,5.3617e-05,5.65e-06,0.0,0 STARLINK-4200,1 52876U 22062AY  23028.14591917  .00000565  00000-0  53617-4 0  9994,2 52876  53.2175  76.2584 0001344 104.1961 255.9180 15.08838927 34973,6917.884,95.438,540.678,538.819,0.0
52876.0,STARLINK-4200,PAYLOAD,2023-01-28 13:02:25,15.08845859,0.0001207,53.2181,74.4753,92.8536,267.2595,4.4228e-05,4.16e-06,0.0,0 STARLINK-4200,1 52876U 22062AY  23028.54335557  .00000416  00000-0  44228-4 0  9997,2 52876  53.2181  74.4753 0001207  92.8536 267.2595 15.08845859 34548,6917.862,95.437,540.562,538.892,0.0
52876.0,STARLINK-4200,PAYLOAD,2023-01-28 19:23:58,15.0883959,0.0001268,53.2181,73.2853,86.5275,273.5862,-2.4761e-05,-6.82e-06,0.0,0 STARLINK-4200,1 52876U 22062AY  23028.80832131 -.00000682  00000-0 -24761-4 0  9993,2 52876  53.2181  73.2853 0001268  86.5275 273.5862 15.08839590 34589,6917.882,95.438,540.624,538.869,0.0
52876.0,STARLINK-4200,PAYLOAD,2023-01-29 03:20:54,15.0883419,0.0001204,53.2191,71.7977,87.7363,272.3767,6.2301e-05,7.04e-06,0.0,0 STARLINK-4200,1 52876U 22062AY  23029.13952298  .00000704  00000-0  62301-4 0  9992,2 52876  53.2191  71.7977 0001204  87.7363 272.3767 15.08834190 35124,6917.898,95.438,540.596,538.93,0.0
52876.0,STARLINK-4200,PAYLOAD,2023-01-29 19:14:46,15.08832999,0.0001143,53.2181,68.8241,87.2266,272.8856,6.8145e-05,7.97e-06,0.0,0 STARLINK-4200,1 52876U 22062AY  23029.80192539  .00000797  00000-0  68145-4 0  9994,2 52876  53.2181  68.8241 0001143  87.2266 272.8856 15.08832999 34738,6917.902,95.438,540.558,538.976,0.0
52876.0,STARLINK-4200,PAYLOAD,2023-01-30 06:22:28,15.08829936,0.0001113,53.2187,66.7423,92.8143,267.2977,1.6025e-05,-3.3e-07,0.0,0 STARLINK-4200,1 52876U 22062AY  23030.26561042 -.00000033  00000-0  16025-4 0  9999,2 52876  53.2187  66.7423 0001113  92.8143 267.2977 15.08829936 35297,6917.911,95.438,540.546,539.006,0.0
52876.0,STARLINK-4200,PAYLOAD,2023-01-30 11:08:37,15.08833416,0.000125,53.2194,65.8498,94.7612,265.3523,3.4733e-05,2.65e-06,0.0,0 STARLINK-4200,1 52876U 22062AY  23030.46432829  .00000265  00000-0  34733-4 0  9993,2 52876  53.2194  65.8498 0001250  94.7612 265.3523 15.08833416 34834,6917.901,95.438,540.63,538.901,0.0
52876.0,STARLINK-4200,PAYLOAD,2023-01-30 19:05:33,15.08839204,0.0001458,53.2199,64.3633,79.0807,281.0349,4.9098e-05,4.94e-06,0.0,0 STARLINK-4200,1 52876U 22062AY  23030.79552581  .00000494  00000-0  49098-4 0  9991,2 52876  53.2199  64.3633 0001458  79.0807 281.0349 15.08839204 35378,6917.883,95.438,540.756,538.739,0.0
52876.0,STARLINK-4200,PAYLOAD,2023-01-31 10:59:24,15.08842187,0.0001515,53.2203,61.3892,93.2336,266.8829,9.1692e-05,1.172e-05,0.0,0 STARLINK-4200,1 52876U 22062AY  23031.45792358  .00001172  00000-0  91692-4 0  9994,2 52876  53.2203  61.3892 0001515  93.2336 266.8829 15.08842187 34981,6917.874,95.437,540.787,538.691,0.0
52876.0,STARLINK-4200,PAYLOAD,2023-01-31 18:56:20,15.08842563,0.000128,53.2186,59.9041,99.4483,260.6653,4.322e-05,4e-06,0.0,0 STARLINK-4200,1 52876U 22062AY  23031.78912339  .00000400  00000-0  43220-4 0  9990,2 52876  53.2186  59.9041 0001280  99.4483 260.6653 15.08842563 35032,6917.873,95.437,540.623,538.852,0.0
52876.0,STARLINK-4200,PAYLOAD,2023-02-01 06:04:02,15.08839755,0.0001378,53.2184,57.8226,90.7629,269.3521,0.00012725,1.738e-05,0.0,0 STARLINK-4200,1 52876U 22062AY  23032.25280433  .00001738  00000-0  12725-3 0  9996,2 52876  53.2184  57.8226 0001378  90.7629 269.3521 15.08839755 35596,6917.881,95.438,540.699,538.793,0.0
52876.0,STARLINK-4200,PAYLOAD,2023-02-01 09:14:48,15.08845854,0.0001418,53.2185,57.2278,90.0264,270.089,0.00011321,1.515e-05,0.0,0 STARLINK-4200,1 52876U 22062AY  23032.38528107  .00001515  00000-0  11321-3 0  9997,2 52876  53.2185  57.2278 0001418  90.0264 270.0890 15.08845854 35125,6917.862,95.437,540.708,538.747,0.0
52876.0,STARLINK-4200,PAYLOAD,2023-02-02 10:40:58,15.08844137,0.0001479,53.2193,52.4681,91.1299,268.9863,6.4529e-05,7.39e-06,0.0,0 STARLINK-4200,1 52876U 22062AY  23033.44512188  .00000739  00000-0  64529-4 0  9993,2 52876  53.2193  52.4681 0001479  91.1299 268.9863 15.08844137 35282,6917.868,95.437,540.756,538.71,0.0
52876.0,STARLINK-4200,PAYLOAD,2023-02-02 23:24:03,15.08843962,0.0001526,53.2194,50.0892,90.8482,269.2685,5.7575e-05,6.29e-06,0.0,0 STARLINK-4200,1 52876U 22062AY  23033.97504118  .00000629  00000-0  57575-4 0  9996,2 52876  53.2194  50.0892 0001526  90.8482 269.2685 15.08843962 35858,6917.868,95.437,540.789,538.678,0.0
52876.0,STARLINK-4200,PAYLOAD,2023-02-03 04:10:13,15.08839181,0.0001627,53.2182,49.1979,90.3154,269.8024,-3.2839e-06,-3.4e-06,0.0,0 STARLINK-4200,1 52876U 22062AY  23034.17376753 -.00000340  00000-0 -32839-5 0  9990,2 52876  53.2182  49.1979 0001627  90.3154 269.8024 15.08839181 35887,6917.883,95.438,540.873,538.622,0.0
52876.0,STARLINK-4200,PAYLOAD,2023-02-03 07:20:59,15.08843978,0.0001674,53.2196,48.6009,94.4661,265.6523,-3.2513e-05,-8.06e-06,0.0,0 STARLINK-4200,1 52876U 22062AY  23034.30624519 -.00000806  00000-0 -32513-4 0  9996,2 52876  53.2196  48.6009 0001674  94.4661 265.6523 15.08843978 35416,6917.868,95.437,540.891,538.575,0.0
52876.0,STARLINK-4200,PAYLOAD,2023-02-04 05:36:24,15.08798865,0.0001514,53.2193,44.4415,111.0343,249.0811,0.00072627,0.00011277,0.0,0 STARLINK-4200,1 52876U 22062AY  23035.23361705  .00011277  00000-0  72627-3 0  9995,2 52876  53.2193  44.4415 0001514 111.0343 249.0811 15.08798865 36044,6918.006,95.44,540.919,538.824,0.0
52876.0,STARLINK-4200,PAYLOAD,2023-02-05 05:27:11,15.08833539,0.0001568,53.2195,39.9826,98.4573,261.6597,1.8981e-05,1.4e-07,0.0,0 STARLINK-4200,1 52876U 22062AY  23036.22721217  .00000014  00000-0  18981-4 0  9994,2 52876  53.2195  39.9826 0001568  98.4573 261.6597 15.08833539 36198,6917.9,95.438,540.85,538.68,0.0
52876.0,STARLINK-4200,PAYLOAD,2023-02-05 10:13:20,15.08837158,0.0001446,53.2184,39.0888,95.7662,264.3495,4.8172e-05,4.79e-06,0.0,0 STARLINK-4200,1 52876U 22062AY  23036.42592912  .00000479  00000-0  48172-4 0  9994,2 52876  53.2184  39.0888 0001446  95.7662 264.3495 15.08837158 35736,6917.889,95.438,540.754,538.754,0.0
52876.0,STARLINK-4200,PAYLOAD,2023-02-06 05:17:57,15.08844134,0.0001337,53.2182,35.52,101.5885,258.5257,5.7024e-05,6.2e-06,0.0,0 STARLINK-4200,1 52876U 22062AY  23037.22080588  .00000620  00000-0  57024-4 0  9998,2 52876  53.2182  35.5200 0001337 101.5885 258.5257 15.08844134 36346,6917.868,95.437,540.658,538.808,0.0
52876.0,STARLINK-4200,PAYLOAD,2023-02-06 10:04:06,15.08851088,0.0001328,53.2192,34.629,100.0242,260.09,0.00012144,1.646e-05,0.0,0 STARLINK-4200,1 52876U 22062AY  23037.41951991  .00001646  00000-0  12144-3 0  9996,2 52876  53.2192  34.6290 0001328 100.0242 260.0900 15.08851088 35884,6917.846,95.437,540.63,538.793,0.0
52876.0,STARLINK-4200,PAYLOAD,2023-02-07 06:44:07,15.08848683,0.000123,53.2187,30.7626,102.2456,257.8674,0.00017187,2.449e-05,0.0,0 STARLINK-4200,1 52876U 22062AY  23038.28064157  .00002449  00000-0  17187-3 0  9995,2 52876  53.2187  30.7626 0001230 102.2456 257.8674 15.08848683 36500,6917.854,95.437,540.57,538.868,0.0
52876.0,STARLINK-4200,PAYLOAD,2023-02-07 22:37:59,15.0883529,7.01e-05,53.2196,27.7888,113.1358,246.9708,8.3366e-05,1.039e-05,0.0,0 STARLINK-4200,1 52876U 22062AY  23038.94305212  .00001039  00000-0  83366-4 0  9995,2 52876  53.2196  27.7888 0000701 113.1358 246.9708 15.08835290 36608,6917.895,95.438,540.245,539.275,0.0
52876.0,STARLINK-4200,PAYLOAD,2023-02-08 06:34:54,15.08846188,0.0001189,53.2185,26.3037,93.7708,266.342,8.1694e-05,1.013e-05,0.0,0 STARLINK-4200,1 52876U 22062AY  23039.27424358  .00001013  00000-0  81694-4 0  9999,2 52876  53.2185  26.3037 0001189  93.7708 266.3420 15.08846188 36650,6917.861,95.437,540.549,538.904,0.0
52876.0,STARLINK-4200,PAYLOAD,2023-02-09 06:25:42,15.08842998,0.000129,53.2195,21.8435,88.7875,271.3265,3.9999e-05,3.49e-06,0.0,0 STARLINK-4200,1 52876U 22062AY  23040.26784904  .00000349  00000-0  39999-4 0  9998,2 52876  53.2195  21.8435 0001290  88.7875 271.3265 15.08842998 36800,6917.871,95.437,540.629,538.844,0.0
52876.0,STARLINK-4200,PAYLOAD,2023-02-09 23:54:57,15.08839434,0.000127,53.2199,18.5716,100.7248,259.3887,0.00017681,2.527e-05,0.0,0 STARLINK-4200,1 52876U 22062AY  23040.99649399  .00002527  00000-0  17681-3 0  9999,2 52876  53.2199  18.5716 0001270 100.7248 259.3887 15.08839434 36915,6917.882,95.438,540.626,538.869,0.0
52876.0,STARLINK-4200,PAYLOAD,2023-02-10 03:05:42,15.08845078,0.0001382,53.2204,17.9754,110.2445,249.8696,0.00026796,3.98e-05,0.0,0 STARLINK-4200,1 52876U 22062AY  23041.12896920  .00003980  00000-0  26796-3 0  9990,2 52876  53.2204  17.9754 0001382 110.2445 249.8696 15.08845078 36447,6917.865,95.437,540.686,538.774,0.0
